CCSDS_OMM_VERS = 2.0
CREATION_DATE  = 
ORIGINATOR     = 

OBJECT_NAME    = SL-3 R/B
OBJECT_ID      = 1988-032B
CENTER_NAME    = EARTH
REF_FRAME      = TEME
TIME_SYSTEM    = UTC
MEAN_ELEMENT_THEORY = SGP/SGP4

EPOCH          = 2026-03-20T04:47:57.560928
MEAN_MOTION    = 15.20019463
ECCENTRICITY   = .00253694
INCLINATION    = 97.5206
RA_OF_ASC_NODE = 62.4151
ARG_OF_PERICENTER = 193.4038
MEAN_ANOMALY   = 166.6526

EPHEMERIS_TYPE = 0
CLASSIFICATION_TYPE = U
NORAD_CAT_ID   = 19046
ELEMENT_SET_NO = 999
REV_AT_EPOCH   = 5370
BSTAR          = .17564163E-3
MEAN_MOTION_DOT = .3745E-4
MEAN_MOTION_DDOT = 0

CCSDS_OMM_VERS = 2.0
CREATION_DATE  = 
ORIGINATOR     = 

OBJECT_NAME    = SL-16 R/B
OBJECT_ID      = 1988-039B
CENTER_NAME    = EARTH
REF_FRAME      = TEME
TIME_SYSTEM    = UTC
MEAN_ELEMENT_THEORY = SGP/SGP4

EPOCH          = 2026-03-20T06:25:41.999808
MEAN_MOTION    = 14.19617812
ECCENTRICITY   = .00232834
INCLINATION    = 71.0151
RA_OF_ASC_NODE = 46.1782
ARG_OF_PERICENTER = 319.0519
MEAN_ANOMALY   = 40.8857

EPHEMERIS_TYPE = 0
CLASSIFICATION_TYPE = U
NORAD_CAT_ID   = 19120
ELEMENT_SET_NO = 999
REV_AT_EPOCH   = 95988
BSTAR          = -.27011348E-4
MEAN_MOTION_DOT = -.105E-5
MEAN_MOTION_DDOT = 0

CCSDS_OMM_VERS = 2.0
CREATION_DATE  = 
ORIGINATOR     = 

OBJECT_NAME    = COSMOS 1953
OBJECT_ID      = 1988-050A
CENTER_NAME    = EARTH
REF_FRAME      = TEME
TIME_SYSTEM    = UTC
MEAN_ELEMENT_THEORY = SGP/SGP4

EPOCH          = 2026-03-20T05:31:35.526720
MEAN_MOTION    = 15.28683692
ECCENTRICITY   = .00126662
INCLINATION    = 82.5089
RA_OF_ASC_NODE = 147.6459
ARG_OF_PERICENTER = 89.5942
MEAN_ANOMALY   = 270.6749

EPHEMERIS_TYPE = 0
CLASSIFICATION_TYPE = U
NORAD_CAT_ID   = 19210
ELEMENT_SET_NO = 999
REV_AT_EPOCH   = 3939
BSTAR          = .16756415E-3
MEAN_MOTION_DOT = .4716E-4
MEAN_MOTION_DDOT = 0

CCSDS_OMM_VERS = 2.0
CREATION_DATE  = 
ORIGINATOR     = 

OBJECT_NAME    = SL-8 R/B
OBJECT_ID      = 1988-053B
CENTER_NAME    = EARTH
REF_FRAME      = TEME
TIME_SYSTEM    = UTC
MEAN_ELEMENT_THEORY = SGP/SGP4

EPOCH          = 2026-03-20T06:49:04.912896
MEAN_MOTION    = 14.38922585
ECCENTRICITY   = .00215435
INCLINATION    = 74.0450
RA_OF_ASC_NODE = 92.9360
ARG_OF_PERICENTER = 270.8485
MEAN_ANOMALY   = 100.1148

EPHEMERIS_TYPE = 0
CLASSIFICATION_TYPE = U
NORAD_CAT_ID   = 19257
ELEMENT_SET_NO = 999
REV_AT_EPOCH   = 97812
BSTAR          = .96083584E-4
MEAN_MOTION_DOT = .27E-5
MEAN_MOTION_DDOT = 0

CCSDS_OMM_VERS = 2.0
CREATION_DATE  = 
ORIGINATOR     = 

OBJECT_NAME    = COSMOS 1975
OBJECT_ID      = 1988-093A
CENTER_NAME    = EARTH
REF_FRAME      = TEME
TIME_SYSTEM    = UTC
MEAN_ELEMENT_THEORY = SGP/SGP4

EPOCH          = 2026-03-20T01:41:58.855776
MEAN_MOTION    = 15.28201276
ECCENTRICITY   = .00129957
INCLINATION    = 82.5161
RA_OF_ASC_NODE = 107.2610
ARG_OF_PERICENTER = 129.3905
MEAN_ANOMALY   = 230.8488

EPHEMERIS_TYPE = 0
CLASSIFICATION_TYPE = U
NORAD_CAT_ID   = 19573
ELEMENT_SET_NO = 999
REV_AT_EPOCH   = 2099
BSTAR          = .20020688E-3
MEAN_MOTION_DOT = .5547E-4
MEAN_MOTION_DDOT = 0

CCSDS_OMM_VERS = 2.0
CREATION_DATE  = 
ORIGINATOR     = 

OBJECT_NAME    = SL-14 R/B
OBJECT_ID      = 1988-093B
CENTER_NAME    = EARTH
REF_FRAME      = TEME
TIME_SYSTEM    = UTC
MEAN_ELEMENT_THEORY = SGP/SGP4

EPOCH          = 2026-03-20T07:32:22.730208
MEAN_MOTION    = 14.85668794
ECCENTRICITY   = .00208835
INCLINATION    = 82.5327
RA_OF_ASC_NODE = 32.0708
ARG_OF_PERICENTER = 7.5124
MEAN_ANOMALY   = 108.8569

EPHEMERIS_TYPE = 0
CLASSIFICATION_TYPE = U
NORAD_CAT_ID   = 19574
ELEMENT_SET_NO = 999
REV_AT_EPOCH   = 259
BSTAR          = .53849562E-4
MEAN_MOTION_DOT = .493E-5
MEAN_MOTION_DDOT = 0

CCSDS_OMM_VERS = 2.0
CREATION_DATE  = 
ORIGINATOR     = 

OBJECT_NAME    = SL-16 R/B
OBJECT_ID      = 1988-102B
CENTER_NAME    = EARTH
REF_FRAME      = TEME
TIME_SYSTEM    = UTC
MEAN_ELEMENT_THEORY = SGP/SGP4

EPOCH          = 2026-03-20T06:55:03.923904
MEAN_MOTION    = 14.16155907
ECCENTRICITY   = .00147113
INCLINATION    = 70.9988
RA_OF_ASC_NODE = 129.1977
ARG_OF_PERICENTER = 345.1121
MEAN_ANOMALY   = 14.9567

EPHEMERIS_TYPE = 0
CLASSIFICATION_TYPE = U
NORAD_CAT_ID   = 19650
ELEMENT_SET_NO = 999
REV_AT_EPOCH   = 92839
BSTAR          = -.37483194E-4
MEAN_MOTION_DOT = -.122E-5
MEAN_MOTION_DDOT = 0

CCSDS_OMM_VERS = 2.0
CREATION_DATE  = 
ORIGINATOR     = 

OBJECT_NAME    = INTERCOSMOS 24
OBJECT_ID      = 1989-080A
CENTER_NAME    = EARTH
REF_FRAME      = TEME
TIME_SYSTEM    = UTC
MEAN_ELEMENT_THEORY = SGP/SGP4

EPOCH          = 2026-03-20T06:53:49.664832
MEAN_MOTION    = 12.59572157
ECCENTRICITY   = .11866918
INCLINATION    = 82.6016
RA_OF_ASC_NODE = 97.5012
ARG_OF_PERICENTER = 268.1968
MEAN_ANOMALY   = 78.3158

EPHEMERIS_TYPE = 0
CLASSIFICATION_TYPE = U
NORAD_CAT_ID   = 20261
ELEMENT_SET_NO = 999
REV_AT_EPOCH   = 66813
BSTAR          = .14137277E-3
MEAN_MOTION_DOT = .476E-5
MEAN_MOTION_DDOT = 0

CCSDS_OMM_VERS = 2.0
CREATION_DATE  = 
ORIGINATOR     = 

OBJECT_NAME    = SL-14 R/B
OBJECT_ID      = 1989-080C
CENTER_NAME    = EARTH
REF_FRAME      = TEME
TIME_SYSTEM    = UTC
MEAN_ELEMENT_THEORY = SGP/SGP4

EPOCH          = 2026-03-20T06:40:56.596512
MEAN_MOTION    = 12.50504699
ECCENTRICITY   = .12308169
INCLINATION    = 82.5967
RA_OF_ASC_NODE = 166.3914
ARG_OF_PERICENTER = 160.5561
MEAN_ANOMALY   = 204.7120

EPHEMERIS_TYPE = 0
CLASSIFICATION_TYPE = U
NORAD_CAT_ID   = 20262
ELEMENT_SET_NO = 999
REV_AT_EPOCH   = 66147
BSTAR          = .10757381E-3
MEAN_MOTION_DOT = .381E-5
MEAN_MOTION_DDOT = 0

CCSDS_OMM_VERS = 2.0
CREATION_DATE  = 
ORIGINATOR     = 

OBJECT_NAME    = DELTA 1 R/B
OBJECT_ID      = 1989-089B
CENTER_NAME    = EARTH
REF_FRAME      = TEME
TIME_SYSTEM    = UTC
MEAN_ELEMENT_THEORY = SGP/SGP4

EPOCH          = 2026-03-20T02:31:24.080448
MEAN_MOTION    = 14.50671661
ECCENTRICITY   = .0070719
INCLINATION    = 97.0697
RA_OF_ASC_NODE = 284.8866
ARG_OF_PERICENTER = 89.7093
MEAN_ANOMALY   = 271.2208

EPHEMERIS_TYPE = 0
CLASSIFICATION_TYPE = U
NORAD_CAT_ID   = 20323
ELEMENT_SET_NO = 999
REV_AT_EPOCH   = 89724
BSTAR          = .86951953E-4
MEAN_MOTION_DOT = .318E-5
MEAN_MOTION_DDOT = 0

CCSDS_OMM_VERS = 2.0
CREATION_DATE  = 
ORIGINATOR     = 

OBJECT_NAME    = ARIANE 40 R/B
OBJECT_ID      = 1990-005H
CENTER_NAME    = EARTH
REF_FRAME      = TEME
TIME_SYSTEM    = UTC
MEAN_ELEMENT_THEORY = SGP/SGP4

EPOCH          = 2026-03-20T04:01:27.747264
MEAN_MOTION    = 14.39876846
ECCENTRICITY   = .00105148
INCLINATION    = 98.3061
RA_OF_ASC_NODE = 139.5158
ARG_OF_PERICENTER = 166.9018
MEAN_ANOMALY   = 193.2446

EPHEMERIS_TYPE = 0
CLASSIFICATION_TYPE = U
NORAD_CAT_ID   = 20443
ELEMENT_SET_NO = 999
REV_AT_EPOCH   = 89431
BSTAR          = .78512022E-4
MEAN_MOTION_DOT = .205E-5
MEAN_MOTION_DDOT = 0

CCSDS_OMM_VERS = 2.0
CREATION_DATE  = 
ORIGINATOR     = 

OBJECT_NAME    = DELTA 2 R/B(1)
OBJECT_ID      = 1990-008B
CENTER_NAME    = EARTH
REF_FRAME      = TEME
TIME_SYSTEM    = UTC
MEAN_ELEMENT_THEORY = SGP/SGP4

EPOCH          = 2026-03-20T03:34:54.803424
MEAN_MOTION    = 15.57257585
ECCENTRICITY   = .00815089
INCLINATION    = 35.6026
RA_OF_ASC_NODE = 106.1373
ARG_OF_PERICENTER = 355.6437
MEAN_ANOMALY   = 4.3584

EPHEMERIS_TYPE = 0
CLASSIFICATION_TYPE = U
NORAD_CAT_ID   = 20453
ELEMENT_SET_NO = 999
REV_AT_EPOCH   = 92776
BSTAR          = .6206102E-3
MEAN_MOTION_DOT = .54938E-3
MEAN_MOTION_DDOT = 0

