SL-3 R/B                
1 19046U 88032B   26079.19997177  .00003745  00000+0  17564-3 0  9999
2 19046  97.5206  62.4151 0025369 193.4038 166.6526 15.20019463 53701
SL-16 R/B               
1 19120U 88039B   26079.26784722 -.00000105  00000+0 -27011-4 0  9995
2 19120  71.0151  46.1782 0023283 319.0519  40.8857 14.19617812959885
COSMOS 1953             
1 19210U 88050A   26079.23027230  .00004716  00000+0  16756-3 0  9992
2 19210  82.5089 147.6459 0012666  89.5942 270.6749 15.28683692 39390
SL-8 R/B                
1 19257U 88053B   26079.28408464  .00000270  00000+0  96084-4 0  9997
2 19257  74.0450  92.9360 0021543 270.8485 100.1148 14.38922585978123
COSMOS 1975             
1 19573U 88093A   26079.07082009  .00005547  00000+0  20021-3 0  9991
2 19573  82.5161 107.2610 0012995 129.3905 230.8488 15.28201276 20999
SL-14 R/B               
1 19574U 88093B   26079.31415197  .00000493  00000+0  53850-4 0  9999
2 19574  82.5327  32.0708 0020883   7.5124 108.8569 14.85668794  2596
SL-16 R/B               
1 19650U 88102B   26079.28823986 -.00000122  00000+0 -37483-4 0  9995
2 19650  70.9988 129.1977 0014711 345.1121  14.9567 14.16155907928393
INTERCOSMOS 24          
1 20261U 89080A   26079.28738038  .00000476  00000+0  14137-3 0  9994
2 20261  82.6016  97.5012 1186691 268.1968  78.3158 12.59572157668132
SL-14 R/B               
1 20262U 89080C   26079.27843283  .00000381  00000+0  10757-3 0  9992
2 20262  82.5967 166.3914 1230816 160.5561 204.7120 12.50504699661477
DELTA 1 R/B             
1 20323U 89089B   26079.10513982  .00000318  00000+0  86952-4 0  9992
2 20323  97.0697 284.8866 0070719  89.7093 271.2208 14.50671661897241
ARIANE 40 R/B           
1 20443U 90005H   26079.16768226  .00000205  00000+0  78512-4 0  9992
2 20443  98.3061 139.5158 0010514 166.9018 193.2446 14.39876846894316
DELTA 2 R/B(1)          
1 20453U 90008B   26079.14924541  .00054938  00000+0  62061-3 0  9991
2 20453  35.6026 106.1373 0081508 355.6437   4.3584 15.57257585927769
